[{"OBJECT_NAME":"KUIPER-00090","OBJECT_ID":"2025-151V","EPOCH":"2026-03-09T21:15:17.323488","MEAN_MOTION":14.7992851,"ECCENTRICITY":6.399e-5,"INCLINATION":51.8979,"RA_OF_ASC_NODE":277.2553,"ARG_OF_PERICENTER":106.9589,"MEAN_ANOMALY":253.1443,"EPHEMERIS_TYPE":0,"CLASSIFICATION_TYPE":"U","NORAD_CAT_ID":64835,"ELEMENT_SET_NO":999,"REV_AT_EPOCH":3564,"BSTAR":9.343077e-6,"MEAN_MOTION_DOT":-1.5e-6,"MEAN_MOTION_DDOT":0},{"OBJECT_NAME":"CZ-6A DEB","OBJECT_ID":"2024-140ADC","EPOCH":"2026-03-09T14:35:35.805120","MEAN_MOTION":14.61113698,"ECCENTRICITY":0.0087805,"INCLINATION":89.0602,"RA_OF_ASC_NODE":286.5146,"ARG_OF_PERICENTER":240.3658,"MEAN_ANOMALY":118.8789,"EPHEMERIS_TYPE":0,"CLASSIFICATION_TYPE":"U","NORAD_CAT_ID":61836,"ELEMENT_SET_NO":999,"REV_AT_EPOCH":7838,"BSTAR":0.0011512,"MEAN_MOTION_DOT":5.994e-5,"MEAN_MOTION_DDOT":0}]
